<?xml version="1.0" encoding="UTF-8"?>
<gpx version="1.1" creator="critterpass" xmlns="http://www.topografix.com/GPX/1/1">
  <!-- Ubud walk: approach Pura Taman Saraswati, dwell four minutes at the temple, walk off.
       Used by e2e/location flows (simctl location / Xcode GPX) and the location engine dev screen. -->
  <trk><name>walk-ubud</name><trkseg>
    <trkpt lat="-8.50960" lon="115.26380"><time>2026-10-12T02:00:00Z</time></trkpt>
    <trkpt lat="-8.50880" lon="115.26310"><time>2026-10-12T02:01:30Z</time></trkpt>
    <trkpt lat="-8.50800" lon="115.26240"><time>2026-10-12T02:03:00Z</time></trkpt>
    <trkpt lat="-8.50720" lon="115.26170"><time>2026-10-12T02:04:30Z</time></trkpt>
    <trkpt lat="-8.50670" lon="115.26130"><time>2026-10-12T02:06:00Z</time></trkpt>
    <trkpt lat="-8.50640" lon="115.26100"><time>2026-10-12T02:07:30Z</time></trkpt>
    <trkpt lat="-8.50639" lon="115.26100"><time>2026-10-12T02:08:00Z</time></trkpt>
    <trkpt lat="-8.50640" lon="115.26100"><time>2026-10-12T02:08:30Z</time></trkpt>
    <trkpt lat="-8.50639" lon="115.26100"><time>2026-10-12T02:09:00Z</time></trkpt>
    <trkpt lat="-8.50640" lon="115.26100"><time>2026-10-12T02:09:30Z</time></trkpt>
    <trkpt lat="-8.50639" lon="115.26100"><time>2026-10-12T02:10:00Z</time></trkpt>
    <trkpt lat="-8.50640" lon="115.26100"><time>2026-10-12T02:10:30Z</time></trkpt>
    <trkpt lat="-8.50639" lon="115.26100"><time>2026-10-12T02:11:00Z</time></trkpt>
    <trkpt lat="-8.50640" lon="115.26100"><time>2026-10-12T02:11:30Z</time></trkpt>
    <trkpt lat="-8.50580" lon="115.26030"><time>2026-10-12T02:12:00Z</time></trkpt>
    <trkpt lat="-8.50500" lon="115.25950"><time>2026-10-12T02:13:30Z</time></trkpt>
    <trkpt lat="-8.50410" lon="115.25880"><time>2026-10-12T02:15:00Z</time></trkpt>
    <trkpt lat="-8.50320" lon="115.25810"><time>2026-10-12T02:16:30Z</time></trkpt>
    <trkpt lat="-8.50240" lon="115.25740"><time>2026-10-12T02:18:00Z</time></trkpt>
  </trkseg></trk>
</gpx>
