<?xml version="1.0" encoding="UTF-8"?>
<gpx version="1.1" creator="critterpass" xmlns="http://www.topografix.com/GPX/1/1" xmlns:cp="https://critterpass.app/gpx">
  <metadata><name>temple-dwell</name><desc>Walk into Tirta Empul and stay 11 minutes within 20 m of the pools (ready after 5).</desc></metadata>
  <trk><trkseg>
    <trkpt lat="-8.4135034" lon="115.3153000"><time>2026-10-03T02:00:00Z</time><extensions><cp:accuracy>12</cp:accuracy></extensions></trkpt>
    <trkpt lat="-8.4136471" lon="115.3153000"><time>2026-10-03T02:00:10Z</time><extensions><cp:accuracy>12</cp:accuracy></extensions></trkpt>
    <trkpt lat="-8.4137908" lon="115.3153000"><time>2026-10-03T02:00:20Z</time><extensions><cp:accuracy>12</cp:accuracy></extensions></trkpt>
    <trkpt lat="-8.4139346" lon="115.3153000"><time>2026-10-03T02:00:30Z</time><extensions><cp:accuracy>12</cp:accuracy></extensions></trkpt>
    <trkpt lat="-8.4140783" lon="115.3153000"><time>2026-10-03T02:00:40Z</time><extensions><cp:accuracy>12</cp:accuracy></extensions></trkpt>
    <trkpt lat="-8.4142220" lon="115.3153000"><time>2026-10-03T02:00:50Z</time><extensions><cp:accuracy>12</cp:accuracy></extensions></trkpt>
    <trkpt lat="-8.4143658" lon="115.3153000"><time>2026-10-03T02:01:00Z</time><extensions><cp:accuracy>12</cp:accuracy></extensions></trkpt>
    <trkpt lat="-8.4145095" lon="115.3153000"><time>2026-10-03T02:01:10Z</time><extensions><cp:accuracy>12</cp:accuracy></extensions></trkpt>
    <trkpt lat="-8.4146532" lon="115.3153000"><time>2026-10-03T02:01:20Z</time><extensions><cp:accuracy>12</cp:accuracy></extensions></trkpt>
    <trkpt lat="-8.4147969" lon="115.3153000"><time>2026-10-03T02:01:30Z</time><extensions><cp:accuracy>12</cp:accuracy></extensions></trkpt>
    <trkpt lat="-8.4149407" lon="115.3153000"><time>2026-10-03T02:01:40Z</time><extensions><cp:accuracy>12</cp:accuracy></extensions></trkpt>
    <trkpt lat="-8.4150844" lon="115.3153000"><time>2026-10-03T02:01:50Z</time><extensions><cp:accuracy>12</cp:accuracy></extensions></trkpt>
    <trkpt lat="-8.4152281" lon="115.3153000"><time>2026-10-03T02:02:00Z</time><extensions><cp:accuracy>12</cp:accuracy></extensions></trkpt>
    <trkpt lat="-8.4152731" lon="115.3152637"><time>2026-10-03T02:02:10Z</time><extensions><cp:accuracy>8</cp:accuracy></extensions></trkpt>
    <trkpt lat="-8.4152371" lon="115.3153363"><time>2026-10-03T02:02:20Z</time><extensions><cp:accuracy>9</cp:accuracy></extensions></trkpt>
    <trkpt lat="-8.4152012" lon="115.3153272"><time>2026-10-03T02:02:30Z</time><extensions><cp:accuracy>10</cp:accuracy></extensions></trkpt>
    <trkpt lat="-8.4152641" lon="115.3153182"><time>2026-10-03T02:02:40Z</time><extensions><cp:accuracy>11</cp:accuracy></extensions></trkpt>
    <trkpt lat="-8.4152281" lon="115.3153091"><time>2026-10-03T02:02:50Z</time><extensions><cp:accuracy>12</cp:accuracy></extensions></trkpt>
    <trkpt lat="-8.4151922" lon="115.3153000"><time>2026-10-03T02:03:00Z</time><extensions><cp:accuracy>8</cp:accuracy></extensions></trkpt>
    <trkpt lat="-8.4152551" lon="115.3152909"><time>2026-10-03T02:03:10Z</time><extensions><cp:accuracy>9</cp:accuracy></extensions></trkpt>
    <trkpt lat="-8.4152192" lon="115.3152818"><time>2026-10-03T02:03:20Z</time><extensions><cp:accuracy>10</cp:accuracy></extensions></trkpt>
    <trkpt lat="-8.4151832" lon="115.3152728"><time>2026-10-03T02:03:30Z</time><extensions><cp:accuracy>11</cp:accuracy></extensions></trkpt>
    <trkpt lat="-8.4152461" lon="115.3152637"><time>2026-10-03T02:03:40Z</time><extensions><cp:accuracy>12</cp:accuracy></extensions></trkpt>
    <trkpt lat="-8.4152102" lon="115.3153363"><time>2026-10-03T02:03:50Z</time><extensions><cp:accuracy>8</cp:accuracy></extensions></trkpt>
    <trkpt lat="-8.4152731" lon="115.3153272"><time>2026-10-03T02:04:00Z</time><extensions><cp:accuracy>9</cp:accuracy></extensions></trkpt>
    <trkpt lat="-8.4152371" lon="115.3153182"><time>2026-10-03T02:04:10Z</time><extensions><cp:accuracy>10</cp:accuracy></extensions></trkpt>
    <trkpt lat="-8.4152012" lon="115.3153091"><time>2026-10-03T02:04:20Z</time><extensions><cp:accuracy>11</cp:accuracy></extensions></trkpt>
    <trkpt lat="-8.4152641" lon="115.3153000"><time>2026-10-03T02:04:30Z</time><extensions><cp:accuracy>12</cp:accuracy></extensions></trkpt>
    <trkpt lat="-8.4152281" lon="115.3152909"><time>2026-10-03T02:04:40Z</time><extensions><cp:accuracy>8</cp:accuracy></extensions></trkpt>
    <trkpt lat="-8.4151922" lon="115.3152818"><time>2026-10-03T02:04:50Z</time><extensions><cp:accuracy>9</cp:accuracy></extensions></trkpt>
    <trkpt lat="-8.4152551" lon="115.3152728"><time>2026-10-03T02:05:00Z</time><extensions><cp:accuracy>10</cp:accuracy></extensions></trkpt>
    <trkpt lat="-8.4152192" lon="115.3152637"><time>2026-10-03T02:05:10Z</time><extensions><cp:accuracy>11</cp:accuracy></extensions></trkpt>
    <trkpt lat="-8.4151832" lon="115.3153363"><time>2026-10-03T02:05:20Z</time><extensions><cp:accuracy>12</cp:accuracy></extensions></trkpt>
    <trkpt lat="-8.4152461" lon="115.3153272"><time>2026-10-03T02:05:30Z</time><extensions><cp:accuracy>8</cp:accuracy></extensions></trkpt>
    <trkpt lat="-8.4152102" lon="115.3153182"><time>2026-10-03T02:05:40Z</time><extensions><cp:accuracy>9</cp:accuracy></extensions></trkpt>
    <trkpt lat="-8.4152731" lon="115.3153091"><time>2026-10-03T02:05:50Z</time><extensions><cp:accuracy>10</cp:accuracy></extensions></trkpt>
    <trkpt lat="-8.4152371" lon="115.3153000"><time>2026-10-03T02:06:00Z</time><extensions><cp:accuracy>11</cp:accuracy></extensions></trkpt>
    <trkpt lat="-8.4152012" lon="115.3152909"><time>2026-10-03T02:06:10Z</time><extensions><cp:accuracy>12</cp:accuracy></extensions></trkpt>
    <trkpt lat="-8.4152641" lon="115.3152818"><time>2026-10-03T02:06:20Z</time><extensions><cp:accuracy>8</cp:accuracy></extensions></trkpt>
    <trkpt lat="-8.4152281" lon="115.3152728"><time>2026-10-03T02:06:30Z</time><extensions><cp:accuracy>9</cp:accuracy></extensions></trkpt>
    <trkpt lat="-8.4151922" lon="115.3152637"><time>2026-10-03T02:06:40Z</time><extensions><cp:accuracy>10</cp:accuracy></extensions></trkpt>
    <trkpt lat="-8.4152551" lon="115.3153363"><time>2026-10-03T02:06:50Z</time><extensions><cp:accuracy>11</cp:accuracy></extensions></trkpt>
    <trkpt lat="-8.4152192" lon="115.3153272"><time>2026-10-03T02:07:00Z</time><extensions><cp:accuracy>12</cp:accuracy></extensions></trkpt>
    <trkpt lat="-8.4151832" lon="115.3153182"><time>2026-10-03T02:07:10Z</time><extensions><cp:accuracy>8</cp:accuracy></extensions></trkpt>
    <trkpt lat="-8.4152461" lon="115.3153091"><time>2026-10-03T02:07:20Z</time><extensions><cp:accuracy>9</cp:accuracy></extensions></trkpt>
    <trkpt lat="-8.4152102" lon="115.3153000"><time>2026-10-03T02:07:30Z</time><extensions><cp:accuracy>10</cp:accuracy></extensions></trkpt>
    <trkpt lat="-8.4152731" lon="115.3152909"><time>2026-10-03T02:07:40Z</time><extensions><cp:accuracy>11</cp:accuracy></extensions></trkpt>
    <trkpt lat="-8.4152371" lon="115.3152818"><time>2026-10-03T02:07:50Z</time><extensions><cp:accuracy>12</cp:accuracy></extensions></trkpt>
    <trkpt lat="-8.4152012" lon="115.3152728"><time>2026-10-03T02:08:00Z</time><extensions><cp:accuracy>8</cp:accuracy></extensions></trkpt>
    <trkpt lat="-8.4152641" lon="115.3152637"><time>2026-10-03T02:08:10Z</time><extensions><cp:accuracy>9</cp:accuracy></extensions></trkpt>
    <trkpt lat="-8.4152281" lon="115.3153363"><time>2026-10-03T02:08:20Z</time><extensions><cp:accuracy>10</cp:accuracy></extensions></trkpt>
    <trkpt lat="-8.4151922" lon="115.3153272"><time>2026-10-03T02:08:30Z</time><extensions><cp:accuracy>11</cp:accuracy></extensions></trkpt>
    <trkpt lat="-8.4152551" lon="115.3153182"><time>2026-10-03T02:08:40Z</time><extensions><cp:accuracy>12</cp:accuracy></extensions></trkpt>
    <trkpt lat="-8.4152192" lon="115.3153091"><time>2026-10-03T02:08:50Z</time><extensions><cp:accuracy>8</cp:accuracy></extensions></trkpt>
    <trkpt lat="-8.4151832" lon="115.3153000"><time>2026-10-03T02:09:00Z</time><extensions><cp:accuracy>9</cp:accuracy></extensions></trkpt>
    <trkpt lat="-8.4152461" lon="115.3152909"><time>2026-10-03T02:09:10Z</time><extensions><cp:accuracy>10</cp:accuracy></extensions></trkpt>
    <trkpt lat="-8.4152102" lon="115.3152818"><time>2026-10-03T02:09:20Z</time><extensions><cp:accuracy>11</cp:accuracy></extensions></trkpt>
    <trkpt lat="-8.4152731" lon="115.3152728"><time>2026-10-03T02:09:30Z</time><extensions><cp:accuracy>12</cp:accuracy></extensions></trkpt>
    <trkpt lat="-8.4152371" lon="115.3152637"><time>2026-10-03T02:09:40Z</time><extensions><cp:accuracy>8</cp:accuracy></extensions></trkpt>
    <trkpt lat="-8.4152012" lon="115.3153363"><time>2026-10-03T02:09:50Z</time><extensions><cp:accuracy>9</cp:accuracy></extensions></trkpt>
    <trkpt lat="-8.4152641" lon="115.3153272"><time>2026-10-03T02:10:00Z</time><extensions><cp:accuracy>10</cp:accuracy></extensions></trkpt>
    <trkpt lat="-8.4152281" lon="115.3153182"><time>2026-10-03T02:10:10Z</time><extensions><cp:accuracy>11</cp:accuracy></extensions></trkpt>
    <trkpt lat="-8.4151922" lon="115.3153091"><time>2026-10-03T02:10:20Z</time><extensions><cp:accuracy>12</cp:accuracy></extensions></trkpt>
    <trkpt lat="-8.4152551" lon="115.3153000"><time>2026-10-03T02:10:30Z</time><extensions><cp:accuracy>8</cp:accuracy></extensions></trkpt>
    <trkpt lat="-8.4152192" lon="115.3152909"><time>2026-10-03T02:10:40Z</time><extensions><cp:accuracy>9</cp:accuracy></extensions></trkpt>
    <trkpt lat="-8.4151832" lon="115.3152818"><time>2026-10-03T02:10:50Z</time><extensions><cp:accuracy>10</cp:accuracy></extensions></trkpt>
    <trkpt lat="-8.4152461" lon="115.3152728"><time>2026-10-03T02:11:00Z</time><extensions><cp:accuracy>11</cp:accuracy></extensions></trkpt>
    <trkpt lat="-8.4152102" lon="115.3152637"><time>2026-10-03T02:11:10Z</time><extensions><cp:accuracy>12</cp:accuracy></extensions></trkpt>
    <trkpt lat="-8.4152731" lon="115.3153363"><time>2026-10-03T02:11:20Z</time><extensions><cp:accuracy>8</cp:accuracy></extensions></trkpt>
    <trkpt lat="-8.4152371" lon="115.3153272"><time>2026-10-03T02:11:30Z</time><extensions><cp:accuracy>9</cp:accuracy></extensions></trkpt>
    <trkpt lat="-8.4152012" lon="115.3153182"><time>2026-10-03T02:11:40Z</time><extensions><cp:accuracy>10</cp:accuracy></extensions></trkpt>
    <trkpt lat="-8.4152641" lon="115.3153091"><time>2026-10-03T02:11:50Z</time><extensions><cp:accuracy>11</cp:accuracy></extensions></trkpt>
    <trkpt lat="-8.4152281" lon="115.3153000"><time>2026-10-03T02:12:00Z</time><extensions><cp:accuracy>12</cp:accuracy></extensions></trkpt>
    <trkpt lat="-8.4151922" lon="115.3152909"><time>2026-10-03T02:12:10Z</time><extensions><cp:accuracy>8</cp:accuracy></extensions></trkpt>
    <trkpt lat="-8.4152551" lon="115.3152818"><time>2026-10-03T02:12:20Z</time><extensions><cp:accuracy>9</cp:accuracy></extensions></trkpt>
    <trkpt lat="-8.4152192" lon="115.3152728"><time>2026-10-03T02:12:30Z</time><extensions><cp:accuracy>10</cp:accuracy></extensions></trkpt>
    <trkpt lat="-8.4151832" lon="115.3152637"><time>2026-10-03T02:12:40Z</time><extensions><cp:accuracy>11</cp:accuracy></extensions></trkpt>
    <trkpt lat="-8.4152461" lon="115.3153363"><time>2026-10-03T02:12:50Z</time><extensions><cp:accuracy>12</cp:accuracy></extensions></trkpt>
    <trkpt lat="-8.4152102" lon="115.3153272"><time>2026-10-03T02:13:00Z</time><extensions><cp:accuracy>8</cp:accuracy></extensions></trkpt>
  </trkseg></trk>
</gpx>
