<?xml version="1.0" encoding="UTF-8"?>
<gpx version="1.1" creator="critterpass" xmlns="http://www.topografix.com/GPX/1/1" xmlns:cp="https://critterpass.app/gpx">
  <metadata><name>walk-off-return</name><desc>Three minutes at the pools, a minute away (inside the grace), three more, then walk off for twenty-five minutes until it wanders off.</desc></metadata>
  <trk><trkseg>
    <trkpt lat="-8.4153000" lon="115.3152637"><time>2026-10-03T02:00:00Z</time><extensions><cp:accuracy>9</cp:accuracy></extensions></trkpt>
    <trkpt lat="-8.4152641" lon="115.3153363"><time>2026-10-03T02:00:10Z</time><extensions><cp:accuracy>9</cp:accuracy></extensions></trkpt>
    <trkpt lat="-8.4152281" lon="115.3153272"><time>2026-10-03T02:00:20Z</time><extensions><cp:accuracy>9</cp:accuracy></extensions></trkpt>
    <trkpt lat="-8.4152910" lon="115.3153182"><time>2026-10-03T02:00:30Z</time><extensions><cp:accuracy>9</cp:accuracy></extensions></trkpt>
    <trkpt lat="-8.4152551" lon="115.3153091"><time>2026-10-03T02:00:40Z</time><extensions><cp:accuracy>9</cp:accuracy></extensions></trkpt>
    <trkpt lat="-8.4152192" lon="115.3153000"><time>2026-10-03T02:00:50Z</time><extensions><cp:accuracy>9</cp:accuracy></extensions></trkpt>
    <trkpt lat="-8.4152820" lon="115.3152909"><time>2026-10-03T02:01:00Z</time><extensions><cp:accuracy>9</cp:accuracy></extensions></trkpt>
    <trkpt lat="-8.4152461" lon="115.3152818"><time>2026-10-03T02:01:10Z</time><extensions><cp:accuracy>9</cp:accuracy></extensions></trkpt>
    <trkpt lat="-8.4152102" lon="115.3152728"><time>2026-10-03T02:01:20Z</time><extensions><cp:accuracy>9</cp:accuracy></extensions></trkpt>
    <trkpt lat="-8.4152731" lon="115.3152637"><time>2026-10-03T02:01:30Z</time><extensions><cp:accuracy>9</cp:accuracy></extensions></trkpt>
    <trkpt lat="-8.4152371" lon="115.3153363"><time>2026-10-03T02:01:40Z</time><extensions><cp:accuracy>9</cp:accuracy></extensions></trkpt>
    <trkpt lat="-8.4153000" lon="115.3153272"><time>2026-10-03T02:01:50Z</time><extensions><cp:accuracy>9</cp:accuracy></extensions></trkpt>
    <trkpt lat="-8.4152641" lon="115.3153182"><time>2026-10-03T02:02:00Z</time><extensions><cp:accuracy>9</cp:accuracy></extensions></trkpt>
    <trkpt lat="-8.4152281" lon="115.3153091"><time>2026-10-03T02:02:10Z</time><extensions><cp:accuracy>9</cp:accuracy></extensions></trkpt>
    <trkpt lat="-8.4152910" lon="115.3153000"><time>2026-10-03T02:02:20Z</time><extensions><cp:accuracy>9</cp:accuracy></extensions></trkpt>
    <trkpt lat="-8.4152551" lon="115.3152909"><time>2026-10-03T02:02:30Z</time><extensions><cp:accuracy>9</cp:accuracy></extensions></trkpt>
    <trkpt lat="-8.4152192" lon="115.3152818"><time>2026-10-03T02:02:40Z</time><extensions><cp:accuracy>9</cp:accuracy></extensions></trkpt>
    <trkpt lat="-8.4152820" lon="115.3152728"><time>2026-10-03T02:02:50Z</time><extensions><cp:accuracy>9</cp:accuracy></extensions></trkpt>
    <trkpt lat="-8.4142220" lon="115.3153000"><time>2026-10-03T02:03:00Z</time><extensions><cp:accuracy>10</cp:accuracy></extensions></trkpt>
    <trkpt lat="-8.4142220" lon="115.3153000"><time>2026-10-03T02:03:10Z</time><extensions><cp:accuracy>10</cp:accuracy></extensions></trkpt>
    <trkpt lat="-8.4142220" lon="115.3153000"><time>2026-10-03T02:03:20Z</time><extensions><cp:accuracy>10</cp:accuracy></extensions></trkpt>
    <trkpt lat="-8.4142220" lon="115.3153000"><time>2026-10-03T02:03:30Z</time><extensions><cp:accuracy>10</cp:accuracy></extensions></trkpt>
    <trkpt lat="-8.4142220" lon="115.3153000"><time>2026-10-03T02:03:40Z</time><extensions><cp:accuracy>10</cp:accuracy></extensions></trkpt>
    <trkpt lat="-8.4142220" lon="115.3153000"><time>2026-10-03T02:03:50Z</time><extensions><cp:accuracy>10</cp:accuracy></extensions></trkpt>
    <trkpt lat="-8.4153000" lon="115.3152637"><time>2026-10-03T02:04:00Z</time><extensions><cp:accuracy>9</cp:accuracy></extensions></trkpt>
    <trkpt lat="-8.4152641" lon="115.3153363"><time>2026-10-03T02:04:10Z</time><extensions><cp:accuracy>9</cp:accuracy></extensions></trkpt>
    <trkpt lat="-8.4152281" lon="115.3153272"><time>2026-10-03T02:04:20Z</time><extensions><cp:accuracy>9</cp:accuracy></extensions></trkpt>
    <trkpt lat="-8.4152910" lon="115.3153182"><time>2026-10-03T02:04:30Z</time><extensions><cp:accuracy>9</cp:accuracy></extensions></trkpt>
    <trkpt lat="-8.4152551" lon="115.3153091"><time>2026-10-03T02:04:40Z</time><extensions><cp:accuracy>9</cp:accuracy></extensions></trkpt>
    <trkpt lat="-8.4152192" lon="115.3153000"><time>2026-10-03T02:04:50Z</time><extensions><cp:accuracy>9</cp:accuracy></extensions></trkpt>
    <trkpt lat="-8.4152820" lon="115.3152909"><time>2026-10-03T02:05:00Z</time><extensions><cp:accuracy>9</cp:accuracy></extensions></trkpt>
    <trkpt lat="-8.4152461" lon="115.3152818"><time>2026-10-03T02:05:10Z</time><extensions><cp:accuracy>9</cp:accuracy></extensions></trkpt>
    <trkpt lat="-8.4152102" lon="115.3152728"><time>2026-10-03T02:05:20Z</time><extensions><cp:accuracy>9</cp:accuracy></extensions></trkpt>
    <trkpt lat="-8.4152731" lon="115.3152637"><time>2026-10-03T02:05:30Z</time><extensions><cp:accuracy>9</cp:accuracy></extensions></trkpt>
    <trkpt lat="-8.4152371" lon="115.3153363"><time>2026-10-03T02:05:40Z</time><extensions><cp:accuracy>9</cp:accuracy></extensions></trkpt>
    <trkpt lat="-8.4153000" lon="115.3153272"><time>2026-10-03T02:05:50Z</time><extensions><cp:accuracy>9</cp:accuracy></extensions></trkpt>
    <trkpt lat="-8.4152641" lon="115.3153182"><time>2026-10-03T02:06:00Z</time><extensions><cp:accuracy>9</cp:accuracy></extensions></trkpt>
    <trkpt lat="-8.4152281" lon="115.3153091"><time>2026-10-03T02:06:10Z</time><extensions><cp:accuracy>9</cp:accuracy></extensions></trkpt>
    <trkpt lat="-8.4152910" lon="115.3153000"><time>2026-10-03T02:06:20Z</time><extensions><cp:accuracy>9</cp:accuracy></extensions></trkpt>
    <trkpt lat="-8.4152551" lon="115.3152909"><time>2026-10-03T02:06:30Z</time><extensions><cp:accuracy>9</cp:accuracy></extensions></trkpt>
    <trkpt lat="-8.4152192" lon="115.3152818"><time>2026-10-03T02:06:40Z</time><extensions><cp:accuracy>9</cp:accuracy></extensions></trkpt>
    <trkpt lat="-8.4152820" lon="115.3152728"><time>2026-10-03T02:06:50Z</time><extensions><cp:accuracy>9</cp:accuracy></extensions></trkpt>
    <trkpt lat="-8.4139525" lon="115.3153000"><time>2026-10-03T02:07:00Z</time><extensions><cp:accuracy>10</cp:accuracy></extensions></trkpt>
    <trkpt lat="-8.4139076" lon="115.3153000"><time>2026-10-03T02:07:10Z</time><extensions><cp:accuracy>10</cp:accuracy></extensions></trkpt>
    <trkpt lat="-8.4138627" lon="115.3153000"><time>2026-10-03T02:07:20Z</time><extensions><cp:accuracy>10</cp:accuracy></extensions></trkpt>
    <trkpt lat="-8.4138178" lon="115.3153000"><time>2026-10-03T02:07:30Z</time><extensions><cp:accuracy>10</cp:accuracy></extensions></trkpt>
    <trkpt lat="-8.4137729" lon="115.3153000"><time>2026-10-03T02:07:40Z</time><extensions><cp:accuracy>10</cp:accuracy></extensions></trkpt>
    <trkpt lat="-8.4137280" lon="115.3153000"><time>2026-10-03T02:07:50Z</time><extensions><cp:accuracy>10</cp:accuracy></extensions></trkpt>
    <trkpt lat="-8.4136830" lon="115.3153000"><time>2026-10-03T02:08:00Z</time><extensions><cp:accuracy>10</cp:accuracy></extensions></trkpt>
    <trkpt lat="-8.4136381" lon="115.3153000"><time>2026-10-03T02:08:10Z</time><extensions><cp:accuracy>10</cp:accuracy></extensions></trkpt>
    <trkpt lat="-8.4135932" lon="115.3153000"><time>2026-10-03T02:08:20Z</time><extensions><cp:accuracy>10</cp:accuracy></extensions></trkpt>
    <trkpt lat="-8.4135483" lon="115.3153000"><time>2026-10-03T02:08:30Z</time><extensions><cp:accuracy>10</cp:accuracy></extensions></trkpt>
    <trkpt lat="-8.4135034" lon="115.3153000"><time>2026-10-03T02:08:40Z</time><extensions><cp:accuracy>10</cp:accuracy></extensions></trkpt>
    <trkpt lat="-8.4134585" lon="115.3153000"><time>2026-10-03T02:08:50Z</time><extensions><cp:accuracy>10</cp:accuracy></extensions></trkpt>
    <trkpt lat="-8.4134135" lon="115.3153000"><time>2026-10-03T02:09:00Z</time><extensions><cp:accuracy>10</cp:accuracy></extensions></trkpt>
    <trkpt lat="-8.4133686" lon="115.3153000"><time>2026-10-03T02:09:10Z</time><extensions><cp:accuracy>10</cp:accuracy></extensions></trkpt>
    <trkpt lat="-8.4133237" lon="115.3153000"><time>2026-10-03T02:09:20Z</time><extensions><cp:accuracy>10</cp:accuracy></extensions></trkpt>
    <trkpt lat="-8.4132788" lon="115.3153000"><time>2026-10-03T02:09:30Z</time><extensions><cp:accuracy>10</cp:accuracy></extensions></trkpt>
    <trkpt lat="-8.4132339" lon="115.3153000"><time>2026-10-03T02:09:40Z</time><extensions><cp:accuracy>10</cp:accuracy></extensions></trkpt>
    <trkpt lat="-8.4131890" lon="115.3153000"><time>2026-10-03T02:09:50Z</time><extensions><cp:accuracy>10</cp:accuracy></extensions></trkpt>
    <trkpt lat="-8.4131441" lon="115.3153000"><time>2026-10-03T02:10:00Z</time><extensions><cp:accuracy>10</cp:accuracy></extensions></trkpt>
    <trkpt lat="-8.4130991" lon="115.3153000"><time>2026-10-03T02:10:10Z</time><extensions><cp:accuracy>10</cp:accuracy></extensions></trkpt>
    <trkpt lat="-8.4130542" lon="115.3153000"><time>2026-10-03T02:10:20Z</time><extensions><cp:accuracy>10</cp:accuracy></extensions></trkpt>
    <trkpt lat="-8.4130093" lon="115.3153000"><time>2026-10-03T02:10:30Z</time><extensions><cp:accuracy>10</cp:accuracy></extensions></trkpt>
    <trkpt lat="-8.4129644" lon="115.3153000"><time>2026-10-03T02:10:40Z</time><extensions><cp:accuracy>10</cp:accuracy></extensions></trkpt>
    <trkpt lat="-8.4129195" lon="115.3153000"><time>2026-10-03T02:10:50Z</time><extensions><cp:accuracy>10</cp:accuracy></extensions></trkpt>
    <trkpt lat="-8.4128746" lon="115.3153000"><time>2026-10-03T02:11:00Z</time><extensions><cp:accuracy>10</cp:accuracy></extensions></trkpt>
    <trkpt lat="-8.4128296" lon="115.3153000"><time>2026-10-03T02:11:10Z</time><extensions><cp:accuracy>10</cp:accuracy></extensions></trkpt>
    <trkpt lat="-8.4127847" lon="115.3153000"><time>2026-10-03T02:11:20Z</time><extensions><cp:accuracy>10</cp:accuracy></extensions></trkpt>
    <trkpt lat="-8.4127398" lon="115.3153000"><time>2026-10-03T02:11:30Z</time><extensions><cp:accuracy>10</cp:accuracy></extensions></trkpt>
    <trkpt lat="-8.4126949" lon="115.3153000"><time>2026-10-03T02:11:40Z</time><extensions><cp:accuracy>10</cp:accuracy></extensions></trkpt>
    <trkpt lat="-8.4126500" lon="115.3153000"><time>2026-10-03T02:11:50Z</time><extensions><cp:accuracy>10</cp:accuracy></extensions></trkpt>
    <trkpt lat="-8.4126051" lon="115.3153000"><time>2026-10-03T02:12:00Z</time><extensions><cp:accuracy>10</cp:accuracy></extensions></trkpt>
    <trkpt lat="-8.4125602" lon="115.3153000"><time>2026-10-03T02:12:10Z</time><extensions><cp:accuracy>10</cp:accuracy></extensions></trkpt>
    <trkpt lat="-8.4125152" lon="115.3153000"><time>2026-10-03T02:12:20Z</time><extensions><cp:accuracy>10</cp:accuracy></extensions></trkpt>
    <trkpt lat="-8.4124703" lon="115.3153000"><time>2026-10-03T02:12:30Z</time><extensions><cp:accuracy>10</cp:accuracy></extensions></trkpt>
    <trkpt lat="-8.4124254" lon="115.3153000"><time>2026-10-03T02:12:40Z</time><extensions><cp:accuracy>10</cp:accuracy></extensions></trkpt>
    <trkpt lat="-8.4123805" lon="115.3153000"><time>2026-10-03T02:12:50Z</time><extensions><cp:accuracy>10</cp:accuracy></extensions></trkpt>
    <trkpt lat="-8.4123356" lon="115.3153000"><time>2026-10-03T02:13:00Z</time><extensions><cp:accuracy>10</cp:accuracy></extensions></trkpt>
    <trkpt lat="-8.4122907" lon="115.3153000"><time>2026-10-03T02:13:10Z</time><extensions><cp:accuracy>10</cp:accuracy></extensions></trkpt>
    <trkpt lat="-8.4122457" lon="115.3153000"><time>2026-10-03T02:13:20Z</time><extensions><cp:accuracy>10</cp:accuracy></extensions></trkpt>
    <trkpt lat="-8.4122008" lon="115.3153000"><time>2026-10-03T02:13:30Z</time><extensions><cp:accuracy>10</cp:accuracy></extensions></trkpt>
    <trkpt lat="-8.4121559" lon="115.3153000"><time>2026-10-03T02:13:40Z</time><extensions><cp:accuracy>10</cp:accuracy></extensions></trkpt>
    <trkpt lat="-8.4121559" lon="115.3153000"><time>2026-10-03T02:13:50Z</time><extensions><cp:accuracy>10</cp:accuracy></extensions></trkpt>
    <trkpt lat="-8.4121559" lon="115.3153000"><time>2026-10-03T02:14:00Z</time><extensions><cp:accuracy>10</cp:accuracy></extensions></trkpt>
    <trkpt lat="-8.4121559" lon="115.3153000"><time>2026-10-03T02:14:10Z</time><extensions><cp:accuracy>10</cp:accuracy></extensions></trkpt>
    <trkpt lat="-8.4121559" lon="115.3153000"><time>2026-10-03T02:14:20Z</time><extensions><cp:accuracy>10</cp:accuracy></extensions></trkpt>
    <trkpt lat="-8.4121559" lon="115.3153000"><time>2026-10-03T02:14:30Z</time><extensions><cp:accuracy>10</cp:accuracy></extensions></trkpt>
    <trkpt lat="-8.4121559" lon="115.3153000"><time>2026-10-03T02:14:40Z</time><extensions><cp:accuracy>10</cp:accuracy></extensions></trkpt>
    <trkpt lat="-8.4121559" lon="115.3153000"><time>2026-10-03T02:14:50Z</time><extensions><cp:accuracy>10</cp:accuracy></extensions></trkpt>
    <trkpt lat="-8.4121559" lon="115.3153000"><time>2026-10-03T02:15:00Z</time><extensions><cp:accuracy>10</cp:accuracy></extensions></trkpt>
    <trkpt lat="-8.4121559" lon="115.3153000"><time>2026-10-03T02:15:10Z</time><extensions><cp:accuracy>10</cp:accuracy></extensions></trkpt>
    <trkpt lat="-8.4121559" lon="115.3153000"><time>2026-10-03T02:15:20Z</time><extensions><cp:accuracy>10</cp:accuracy></extensions></trkpt>
    <trkpt lat="-8.4121559" lon="115.3153000"><time>2026-10-03T02:15:30Z</time><extensions><cp:accuracy>10</cp:accuracy></extensions></trkpt>
    <trkpt lat="-8.4121559" lon="115.3153000"><time>2026-10-03T02:15:40Z</time><extensions><cp:accuracy>10</cp:accuracy></extensions></trkpt>
    <trkpt lat="-8.4121559" lon="115.3153000"><time>2026-10-03T02:15:50Z</time><extensions><cp:accuracy>10</cp:accuracy></extensions></trkpt>
    <trkpt lat="-8.4121559" lon="115.3153000"><time>2026-10-03T02:16:00Z</time><extensions><cp:accuracy>10</cp:accuracy></extensions></trkpt>
    <trkpt lat="-8.4121559" lon="115.3153000"><time>2026-10-03T02:16:10Z</time><extensions><cp:accuracy>10</cp:accuracy></extensions></trkpt>
    <trkpt lat="-8.4121559" lon="115.3153000"><time>2026-10-03T02:16:20Z</time><extensions><cp:accuracy>10</cp:accuracy></extensions></trkpt>
    <trkpt lat="-8.4121559" lon="115.3153000"><time>2026-10-03T02:16:30Z</time><extensions><cp:accuracy>10</cp:accuracy></extensions></trkpt>
    <trkpt lat="-8.4121559" lon="115.3153000"><time>2026-10-03T02:16:40Z</time><extensions><cp:accuracy>10</cp:accuracy></extensions></trkpt>
    <trkpt lat="-8.4121559" lon="115.3153000"><time>2026-10-03T02:16:50Z</time><extensions><cp:accuracy>10</cp:accuracy></extensions></trkpt>
    <trkpt lat="-8.4121559" lon="115.3153000"><time>2026-10-03T02:17:00Z</time><extensions><cp:accuracy>10</cp:accuracy></extensions></trkpt>
    <trkpt lat="-8.4121559" lon="115.3153000"><time>2026-10-03T02:17:10Z</time><extensions><cp:accuracy>10</cp:accuracy></extensions></trkpt>
    <trkpt lat="-8.4121559" lon="115.3153000"><time>2026-10-03T02:17:20Z</time><extensions><cp:accuracy>10</cp:accuracy></extensions></trkpt>
    <trkpt lat="-8.4121559" lon="115.3153000"><time>2026-10-03T02:17:30Z</time><extensions><cp:accuracy>10</cp:accuracy></extensions></trkpt>
    <trkpt lat="-8.4121559" lon="115.3153000"><time>2026-10-03T02:17:40Z</time><extensions><cp:accuracy>10</cp:accuracy></extensions></trkpt>
    <trkpt lat="-8.4121559" lon="115.3153000"><time>2026-10-03T02:17:50Z</time><extensions><cp:accuracy>10</cp:accuracy></extensions></trkpt>
    <trkpt lat="-8.4121559" lon="115.3153000"><time>2026-10-03T02:18:00Z</time><extensions><cp:accuracy>10</cp:accuracy></extensions></trkpt>
    <trkpt lat="-8.4121559" lon="115.3153000"><time>2026-10-03T02:18:10Z</time><extensions><cp:accuracy>10</cp:accuracy></extensions></trkpt>
    <trkpt lat="-8.4121559" lon="115.3153000"><time>2026-10-03T02:18:20Z</time><extensions><cp:accuracy>10</cp:accuracy></extensions></trkpt>
    <trkpt lat="-8.4121559" lon="115.3153000"><time>2026-10-03T02:18:30Z</time><extensions><cp:accuracy>10</cp:accuracy></extensions></trkpt>
    <trkpt lat="-8.4121559" lon="115.3153000"><time>2026-10-03T02:18:40Z</time><extensions><cp:accuracy>10</cp:accuracy></extensions></trkpt>
    <trkpt lat="-8.4121559" lon="115.3153000"><time>2026-10-03T02:18:50Z</time><extensions><cp:accuracy>10</cp:accuracy></extensions></trkpt>
    <trkpt lat="-8.4121559" lon="115.3153000"><time>2026-10-03T02:19:00Z</time><extensions><cp:accuracy>10</cp:accuracy></extensions></trkpt>
    <trkpt lat="-8.4121559" lon="115.3153000"><time>2026-10-03T02:19:10Z</time><extensions><cp:accuracy>10</cp:accuracy></extensions></trkpt>
    <trkpt lat="-8.4121559" lon="115.3153000"><time>2026-10-03T02:19:20Z</time><extensions><cp:accuracy>10</cp:accuracy></extensions></trkpt>
    <trkpt lat="-8.4121559" lon="115.3153000"><time>2026-10-03T02:19:30Z</time><extensions><cp:accuracy>10</cp:accuracy></extensions></trkpt>
    <trkpt lat="-8.4121559" lon="115.3153000"><time>2026-10-03T02:19:40Z</time><extensions><cp:accuracy>10</cp:accuracy></extensions></trkpt>
    <trkpt lat="-8.4121559" lon="115.3153000"><time>2026-10-03T02:19:50Z</time><extensions><cp:accuracy>10</cp:accuracy></extensions></trkpt>
    <trkpt lat="-8.4121559" lon="115.3153000"><time>2026-10-03T02:20:00Z</time><extensions><cp:accuracy>10</cp:accuracy></extensions></trkpt>
    <trkpt lat="-8.4121559" lon="115.3153000"><time>2026-10-03T02:20:10Z</time><extensions><cp:accuracy>10</cp:accuracy></extensions></trkpt>
    <trkpt lat="-8.4121559" lon="115.3153000"><time>2026-10-03T02:20:20Z</time><extensions><cp:accuracy>10</cp:accuracy></extensions></trkpt>
    <trkpt lat="-8.4121559" lon="115.3153000"><time>2026-10-03T02:20:30Z</time><extensions><cp:accuracy>10</cp:accuracy></extensions></trkpt>
    <trkpt lat="-8.4121559" lon="115.3153000"><time>2026-10-03T02:20:40Z</time><extensions><cp:accuracy>10</cp:accuracy></extensions></trkpt>
    <trkpt lat="-8.4121559" lon="115.3153000"><time>2026-10-03T02:20:50Z</time><extensions><cp:accuracy>10</cp:accuracy></extensions></trkpt>
    <trkpt lat="-8.4121559" lon="115.3153000"><time>2026-10-03T02:21:00Z</time><extensions><cp:accuracy>10</cp:accuracy></extensions></trkpt>
    <trkpt lat="-8.4121559" lon="115.3153000"><time>2026-10-03T02:21:10Z</time><extensions><cp:accuracy>10</cp:accuracy></extensions></trkpt>
    <trkpt lat="-8.4121559" lon="115.3153000"><time>2026-10-03T02:21:20Z</time><extensions><cp:accuracy>10</cp:accuracy></extensions></trkpt>
    <trkpt lat="-8.4121559" lon="115.3153000"><time>2026-10-03T02:21:30Z</time><extensions><cp:accuracy>10</cp:accuracy></extensions></trkpt>
    <trkpt lat="-8.4121559" lon="115.3153000"><time>2026-10-03T02:21:40Z</time><extensions><cp:accuracy>10</cp:accuracy></extensions></trkpt>
    <trkpt lat="-8.4121559" lon="115.3153000"><time>2026-10-03T02:21:50Z</time><extensions><cp:accuracy>10</cp:accuracy></extensions></trkpt>
    <trkpt lat="-8.4121559" lon="115.3153000"><time>2026-10-03T02:22:00Z</time><extensions><cp:accuracy>10</cp:accuracy></extensions></trkpt>
    <trkpt lat="-8.4121559" lon="115.3153000"><time>2026-10-03T02:22:10Z</time><extensions><cp:accuracy>10</cp:accuracy></extensions></trkpt>
    <trkpt lat="-8.4121559" lon="115.3153000"><time>2026-10-03T02:22:20Z</time><extensions><cp:accuracy>10</cp:accuracy></extensions></trkpt>
    <trkpt lat="-8.4121559" lon="115.3153000"><time>2026-10-03T02:22:30Z</time><extensions><cp:accuracy>10</cp:accuracy></extensions></trkpt>
    <trkpt lat="-8.4121559" lon="115.3153000"><time>2026-10-03T02:22:40Z</time><extensions><cp:accuracy>10</cp:accuracy></extensions></trkpt>
    <trkpt lat="-8.4121559" lon="115.3153000"><time>2026-10-03T02:22:50Z</time><extensions><cp:accuracy>10</cp:accuracy></extensions></trkpt>
    <trkpt lat="-8.4121559" lon="115.3153000"><time>2026-10-03T02:23:00Z</time><extensions><cp:accuracy>10</cp:accuracy></extensions></trkpt>
    <trkpt lat="-8.4121559" lon="115.3153000"><time>2026-10-03T02:23:10Z</time><extensions><cp:accuracy>10</cp:accuracy></extensions></trkpt>
    <trkpt lat="-8.4121559" lon="115.3153000"><time>2026-10-03T02:23:20Z</time><extensions><cp:accuracy>10</cp:accuracy></extensions></trkpt>
    <trkpt lat="-8.4121559" lon="115.3153000"><time>2026-10-03T02:23:30Z</time><extensions><cp:accuracy>10</cp:accuracy></extensions></trkpt>
    <trkpt lat="-8.4121559" lon="115.3153000"><time>2026-10-03T02:23:40Z</time><extensions><cp:accuracy>10</cp:accuracy></extensions></trkpt>
    <trkpt lat="-8.4121559" lon="115.3153000"><time>2026-10-03T02:23:50Z</time><extensions><cp:accuracy>10</cp:accuracy></extensions></trkpt>
    <trkpt lat="-8.4121559" lon="115.3153000"><time>2026-10-03T02:24:00Z</time><extensions><cp:accuracy>10</cp:accuracy></extensions></trkpt>
    <trkpt lat="-8.4121559" lon="115.3153000"><time>2026-10-03T02:24:10Z</time><extensions><cp:accuracy>10</cp:accuracy></extensions></trkpt>
    <trkpt lat="-8.4121559" lon="115.3153000"><time>2026-10-03T02:24:20Z</time><extensions><cp:accuracy>10</cp:accuracy></extensions></trkpt>
    <trkpt lat="-8.4121559" lon="115.3153000"><time>2026-10-03T02:24:30Z</time><extensions><cp:accuracy>10</cp:accuracy></extensions></trkpt>
    <trkpt lat="-8.4121559" lon="115.3153000"><time>2026-10-03T02:24:40Z</time><extensions><cp:accuracy>10</cp:accuracy></extensions></trkpt>
    <trkpt lat="-8.4121559" lon="115.3153000"><time>2026-10-03T02:24:50Z</time><extensions><cp:accuracy>10</cp:accuracy></extensions></trkpt>
    <trkpt lat="-8.4121559" lon="115.3153000"><time>2026-10-03T02:25:00Z</time><extensions><cp:accuracy>10</cp:accuracy></extensions></trkpt>
    <trkpt lat="-8.4121559" lon="115.3153000"><time>2026-10-03T02:25:10Z</time><extensions><cp:accuracy>10</cp:accuracy></extensions></trkpt>
    <trkpt lat="-8.4121559" lon="115.3153000"><time>2026-10-03T02:25:20Z</time><extensions><cp:accuracy>10</cp:accuracy></extensions></trkpt>
    <trkpt lat="-8.4121559" lon="115.3153000"><time>2026-10-03T02:25:30Z</time><extensions><cp:accuracy>10</cp:accuracy></extensions></trkpt>
    <trkpt lat="-8.4121559" lon="115.3153000"><time>2026-10-03T02:25:40Z</time><extensions><cp:accuracy>10</cp:accuracy></extensions></trkpt>
    <trkpt lat="-8.4121559" lon="115.3153000"><time>2026-10-03T02:25:50Z</time><extensions><cp:accuracy>10</cp:accuracy></extensions></trkpt>
    <trkpt lat="-8.4121559" lon="115.3153000"><time>2026-10-03T02:26:00Z</time><extensions><cp:accuracy>10</cp:accuracy></extensions></trkpt>
    <trkpt lat="-8.4121559" lon="115.3153000"><time>2026-10-03T02:26:10Z</time><extensions><cp:accuracy>10</cp:accuracy></extensions></trkpt>
    <trkpt lat="-8.4121559" lon="115.3153000"><time>2026-10-03T02:26:20Z</time><extensions><cp:accuracy>10</cp:accuracy></extensions></trkpt>
    <trkpt lat="-8.4121559" lon="115.3153000"><time>2026-10-03T02:26:30Z</time><extensions><cp:accuracy>10</cp:accuracy></extensions></trkpt>
    <trkpt lat="-8.4121559" lon="115.3153000"><time>2026-10-03T02:26:40Z</time><extensions><cp:accuracy>10</cp:accuracy></extensions></trkpt>
    <trkpt lat="-8.4121559" lon="115.3153000"><time>2026-10-03T02:26:50Z</time><extensions><cp:accuracy>10</cp:accuracy></extensions></trkpt>
    <trkpt lat="-8.4121559" lon="115.3153000"><time>2026-10-03T02:27:00Z</time><extensions><cp:accuracy>10</cp:accuracy></extensions></trkpt>
    <trkpt lat="-8.4121559" lon="115.3153000"><time>2026-10-03T02:27:10Z</time><extensions><cp:accuracy>10</cp:accuracy></extensions></trkpt>
    <trkpt lat="-8.4121559" lon="115.3153000"><time>2026-10-03T02:27:20Z</time><extensions><cp:accuracy>10</cp:accuracy></extensions></trkpt>
    <trkpt lat="-8.4121559" lon="115.3153000"><time>2026-10-03T02:27:30Z</time><extensions><cp:accuracy>10</cp:accuracy></extensions></trkpt>
    <trkpt lat="-8.4121559" lon="115.3153000"><time>2026-10-03T02:27:40Z</time><extensions><cp:accuracy>10</cp:accuracy></extensions></trkpt>
    <trkpt lat="-8.4121559" lon="115.3153000"><time>2026-10-03T02:27:50Z</time><extensions><cp:accuracy>10</cp:accuracy></extensions></trkpt>
    <trkpt lat="-8.4121559" lon="115.3153000"><time>2026-10-03T02:28:00Z</time><extensions><cp:accuracy>10</cp:accuracy></extensions></trkpt>
    <trkpt lat="-8.4121559" lon="115.3153000"><time>2026-10-03T02:28:10Z</time><extensions><cp:accuracy>10</cp:accuracy></extensions></trkpt>
    <trkpt lat="-8.4121559" lon="115.3153000"><time>2026-10-03T02:28:20Z</time><extensions><cp:accuracy>10</cp:accuracy></extensions></trkpt>
    <trkpt lat="-8.4121559" lon="115.3153000"><time>2026-10-03T02:28:30Z</time><extensions><cp:accuracy>10</cp:accuracy></extensions></trkpt>
    <trkpt lat="-8.4121559" lon="115.3153000"><time>2026-10-03T02:28:40Z</time><extensions><cp:accuracy>10</cp:accuracy></extensions></trkpt>
    <trkpt lat="-8.4121559" lon="115.3153000"><time>2026-10-03T02:28:50Z</time><extensions><cp:accuracy>10</cp:accuracy></extensions></trkpt>
    <trkpt lat="-8.4121559" lon="115.3153000"><time>2026-10-03T02:29:00Z</time><extensions><cp:accuracy>10</cp:accuracy></extensions></trkpt>
    <trkpt lat="-8.4121559" lon="115.3153000"><time>2026-10-03T02:29:10Z</time><extensions><cp:accuracy>10</cp:accuracy></extensions></trkpt>
    <trkpt lat="-8.4121559" lon="115.3153000"><time>2026-10-03T02:29:20Z</time><extensions><cp:accuracy>10</cp:accuracy></extensions></trkpt>
    <trkpt lat="-8.4121559" lon="115.3153000"><time>2026-10-03T02:29:30Z</time><extensions><cp:accuracy>10</cp:accuracy></extensions></trkpt>
    <trkpt lat="-8.4121559" lon="115.3153000"><time>2026-10-03T02:29:40Z</time><extensions><cp:accuracy>10</cp:accuracy></extensions></trkpt>
    <trkpt lat="-8.4121559" lon="115.3153000"><time>2026-10-03T02:29:50Z</time><extensions><cp:accuracy>10</cp:accuracy></extensions></trkpt>
    <trkpt lat="-8.4121559" lon="115.3153000"><time>2026-10-03T02:30:00Z</time><extensions><cp:accuracy>10</cp:accuracy></extensions></trkpt>
    <trkpt lat="-8.4121559" lon="115.3153000"><time>2026-10-03T02:30:10Z</time><extensions><cp:accuracy>10</cp:accuracy></extensions></trkpt>
    <trkpt lat="-8.4121559" lon="115.3153000"><time>2026-10-03T02:30:20Z</time><extensions><cp:accuracy>10</cp:accuracy></extensions></trkpt>
    <trkpt lat="-8.4121559" lon="115.3153000"><time>2026-10-03T02:30:30Z</time><extensions><cp:accuracy>10</cp:accuracy></extensions></trkpt>
    <trkpt lat="-8.4121559" lon="115.3153000"><time>2026-10-03T02:30:40Z</time><extensions><cp:accuracy>10</cp:accuracy></extensions></trkpt>
    <trkpt lat="-8.4121559" lon="115.3153000"><time>2026-10-03T02:30:50Z</time><extensions><cp:accuracy>10</cp:accuracy></extensions></trkpt>
    <trkpt lat="-8.4121559" lon="115.3153000"><time>2026-10-03T02:31:00Z</time><extensions><cp:accuracy>10</cp:accuracy></extensions></trkpt>
    <trkpt lat="-8.4121559" lon="115.3153000"><time>2026-10-03T02:31:10Z</time><extensions><cp:accuracy>10</cp:accuracy></extensions></trkpt>
    <trkpt lat="-8.4121559" lon="115.3153000"><time>2026-10-03T02:31:20Z</time><extensions><cp:accuracy>10</cp:accuracy></extensions></trkpt>
    <trkpt lat="-8.4121559" lon="115.3153000"><time>2026-10-03T02:31:30Z</time><extensions><cp:accuracy>10</cp:accuracy></extensions></trkpt>
    <trkpt lat="-8.4121559" lon="115.3153000"><time>2026-10-03T02:31:40Z</time><extensions><cp:accuracy>10</cp:accuracy></extensions></trkpt>
    <trkpt lat="-8.4121559" lon="115.3153000"><time>2026-10-03T02:31:50Z</time><extensions><cp:accuracy>10</cp:accuracy></extensions></trkpt>
  </trkseg></trk>
</gpx>
